{"type":"FeatureCollection","features":[{"type":"Feature","id":1,"geometry":{"type":"LineString","coordinates":[[112.64020463500003,30.81561976100005],[112.63936666100005,30.815331040000046],[112.63836937100007,30.814935921000085],[112.63710967700001,30.814377870000044],[112.63567580000006,30.813658750000059],[112.63388513400002,30.812615237000045],[112.63209864300006,30.811385920000077],[112.63043929600008,30.810010933000058],[112.62903200700009,30.808532979000063],[112.627963002,30.80694724500006],[112.62737467400007,30.805405755000038],[112.627242583,30.803935516000081],[112.62738248900007,30.802731746000063],[112.62770949700007,30.801527948000057],[112.62818793000008,30.800333478000084],[112.62879343000009,30.79915746000006],[112.62951106500009,30.798009322000041],[112.63048470500007,30.79669838600006],[112.63155657900006,30.795423054000082],[112.6350145670001,30.791669569000078],[112.63615534500002,30.790400206000072],[112.63726892400007,30.789075745000048],[112.63831168400009,30.787715816000059],[112.63925903000006,30.786314673000049],[112.64007792500001,30.784863377000079],[112.64066548200003,30.783537678000073],[112.64112495300003,30.782176237000044],[112.6414530830001,30.780789790000085],[112.64162458600003,30.77956359500007],[112.64168135400007,30.778332894000073],[112.64161267400004,30.777104973000064],[112.64133040000002,30.775537658000076],[112.64087209800005,30.773984899000084],[112.64028289200007,30.772445456000071],[112.63959565300001,30.770918994000056],[112.63883327400004,30.769406178000054],[112.63811959100008,30.768099819000042],[112.63736829200002,30.766805593000072],[112.63576909300002,30.764259242000037],[112.63492214100006,30.763012186000083],[112.6330127980001,30.760413392000089],[112.62601860300003,30.751569452000069],[112.62298536700007,30.747570241000062],[112.62096633700003,30.74477829600005],[112.6159637610001,30.737691285000039],[112.61210534500003,30.732492795000041],[112.61119653000003,30.731202790000054],[112.61022305800009,30.729719067000076],[112.6092940960001,30.728205557000081],[112.60753434100002,30.725116095000089],[112.60597190600004,30.722152626000081],[112.60460625500002,30.719326705000071],[112.60397814000009,30.717891818000055],[112.60340116300006,30.71643707000004],[112.60282997400009,30.714793932000077],[112.602315643,30.713128709000046],[112.60183772000005,30.711448960000041],[112.60045493300004,30.706382948000055],[112.600030468,30.704932728000074],[112.59910132000005,30.702059671000086],[112.59858414900009,30.700642588000051],[112.59802058300011,30.699243484000078],[112.59736524800007,30.697782686000039],[112.59666177300005,30.696340611000039],[112.59592432400007,30.694911360000049],[112.59287270100003,30.689227574000085],[112.59216305400003,30.687834628000076],[112.59148712900003,30.686431061000064],[112.59085678100007,30.68501494800006],[112.59028767900008,30.683583734000081],[112.58980029400004,30.682134148000046],[112.58941251500005,30.680658103000042],[112.58912441000007,30.679168081000057],[112.58893398400005,30.67767228200006],[112.58884683800011,30.676178889000084],[112.58887664100007,30.674696549000089],[112.58904585400001,30.673234898000089],[112.589352265,30.671884591000037],[112.58978922800009,30.670565293000038],[112.59034282700009,30.669281625000053],[112.5910065810001,30.668040389000055],[112.59178962400006,30.666827218000037],[112.59266093500003,30.665657019000037],[112.59360037800002,30.664521953000076],[112.5945929830001,30.663416594000068],[112.59562813400009,30.662337714000046],[112.596698919,30.661284138000042],[112.59800886800008,30.660066809000057],[112.59935366700006,30.658881490000056],[112.60072783200008,30.65772701800006],[112.60212999300006,30.65660581700007],[112.60356252600002,30.655524010000079],[112.60494290100007,30.654545752000047],[112.60776717300007,30.652679596000041],[112.61209113700011,30.650022511000088],[112.61516464400006,30.648247458000071],[112.6167142590001,30.64739845400004],[112.61827555800005,30.646587551000039],[112.61985276600001,30.645829783000067],[112.62145190300009,30.64514607600006],[112.62308112900007,30.644564685000034],[112.62455163700008,30.644157093000047],[112.626046245,30.643839459000048],[112.62755876900007,30.643598992000079],[112.62908428000003,30.643428572000062],[112.63061884300009,30.64332644600006],[112.63215928900001,30.643296092000071],[112.63371468500009,30.643341439000039],[112.6352719030001,30.643449679000071],[112.63682971000003,30.643606723000062],[112.63994288800006,30.644030464000082],[112.64304596000011,30.644571327000051],[112.64618386200004,30.645243207000078],[112.64935381400005,30.646036024000068],[112.65407615300001,30.647354944000085],[112.65711880700007,30.648286012000085],[112.66152449100002,30.649750342000061],[112.66443712900002,30.650797091000072],[112.665883678,30.651347696000073],[112.66890031500009,30.652567419000036],[112.67340537300004,30.654453559000046],[112.67642585700003,30.655659532000072],[112.67795015800004,30.656218095000042],[112.67948896600001,30.656729015000053],[112.68105536100006,30.657182105000061],[112.68263757,30.65757700000006],[112.6842327060001,30.657917210000051],[112.68583862200001,30.658201554000073],[112.68745375800006,30.658423939000045],[112.68907698600003,30.658572948000085],[112.69069427500006,30.65863782100007],[112.6923158410001,30.658630004000088],[112.69393867800011,30.658560159000046],[112.69555934000005,30.658433384000034],[112.69717359400011,30.65824936100006],[112.69877602400004,30.658002257000078],[112.70035953800004,30.657680377000077],[112.70191479000005,30.657265556000084],[112.70350049700005,30.656714771000054],[112.70504125800005,30.656057057000055],[112.70653144200003,30.655305937000037],[112.70795954900007,30.654466438000043],[112.70930708600008,30.653535374000057],[112.7105470780001,30.652501304000054],[112.711579422,30.651433508000082],[112.712479637,30.650276897000083],[112.71323109600007,30.649043496000047],[112.71380564500009,30.64773998000004],[112.714200334,30.646227860000067],[112.71434738300002,30.644668423000041],[112.71427850500004,30.643295672000079],[112.71404458500001,30.641928818000054],[112.71365898600004,30.640585574000056],[112.71312414900001,30.639285061000066],[112.71255572100006,30.638235411000039],[112.71189055000002,30.637234043000035],[112.711138785,30.636285600000065],[112.71002832900001,30.635125422000044],[112.70880016300009,30.634073059000059],[112.70746650700005,30.633140428000047],[112.705957431,30.632301429000051],[112.70436310100001,30.631594341000039],[112.70270367800003,30.631006004000085],[112.70103284100003,30.630536113000062],[112.69932893000009,30.63014260500006],[112.69240945500007,30.628822531000083],[112.69081642000003,30.628474677000042],[112.68924318200004,30.628085322000061],[112.68769690100009,30.627646011000081],[112.68618731900006,30.627143989000047],[112.68472770700009,30.626561013000071],[112.68341352600009,30.625919595000084],[112.68217049900011,30.625180498000077],[112.68101513600004,30.624333189000083],[112.68009532800011,30.623500145000037],[112.67925120900009,30.622586600000091],[112.6784786820001,30.621603653000079],[112.6776962670001,30.620430814000088],[112.67699703400001,30.619193549000045],[112.67638046400009,30.617900662000068],[112.675839881,30.616518763000045],[112.67536227000005,30.614913243000046],[112.67495031400006,30.613113105000082],[112.67461116200002,30.611186178000082],[112.67435190700007,30.609199808000085],[112.67417867400002,30.607220894000079],[112.67408642800001,30.60514835500004],[112.67407126100011,30.603254304000075],[112.6741045660001,30.601628841000036],[112.67420307400005,30.599282119000065]]},"properties":{"OBJECTID":1,"Shape_Length":0.38311322300528267,"InLine_FID":1}}]}