{"type":"FeatureCollection","features":[{"type":"Feature","id":1,"geometry":{"type":"Polygon","coordinates":[[[112.64202974377781,30.790700953086684],[112.64162285630994,30.791057872423039],[112.6411267381086,30.791475468118506],[112.64087689475309,30.791689619180772],[112.64045573054773,30.792078661401263],[112.63998459731147,30.79254622522825],[112.63924934398221,30.793181541395199],[112.63862116573443,30.793709781581299],[112.63818572479158,30.79409525439263],[112.63760394616531,30.794602079922242],[112.63703644517602,30.795162442992535],[112.63645585635288,30.795746600325515],[112.6361631827848,30.796039273893541],[112.63564921933619,30.796488992473201],[112.63488541163258,30.797181415590046],[112.63436252511065,30.797728096374726],[112.63418109138445,30.797933325262932],[112.63369925081997,30.798400294638043],[112.63315494874212,30.798938647700595],[112.63263741588423,30.799542435435228],[112.63233403498793,30.799887457640239],[112.6321734214664,30.800009404810339],[112.63193844930015,30.800190838536537],[112.63160235106784,30.800482323200811],[112.6311562018974,30.80091360028257],[112.6310967153413,30.80097606089663],[112.63106994612133,30.801154520564864],[112.631090766326,30.801344877364386],[112.63101640858054,30.801499542769875],[112.6309688191559,30.801666104407332],[112.63099856243389,30.801761283256781],[112.63097774222922,30.801904050631606],[112.63094204993581,30.801987332349654],[112.63098963936056,30.802139022797803],[112.63106697206331,30.802284764230649],[112.63104912591655,30.802394814269405],[112.63097179321392,30.80241860943147],[112.63063866903951,30.80247214697215],[112.63031744199657,30.80253758254355],[112.63032041605459,30.80269522200706],[112.63024308335184,30.802739836474416],[112.62994267651345,30.802775528767825],[112.62968688504191,30.802787425899169],[112.629463810007,30.802835015323865],[112.62941622058224,30.80298075675671],[112.62944298980233,30.803153267409527],[112.62947273308032,30.803373368386417],[112.62927047914945,30.803453675147182],[112.62931330936192,30.803848863334565],[112.62952448636611,30.804506189509198],[112.62998550672592,30.805282488795967],[112.63072016560329,30.806222375662287],[112.63132990235329,30.806927291261673],[112.63200804873259,30.807715487679786],[112.63276352781475,30.808301430167035],[112.63363084119055,30.808846326696766],[112.63446841128837,30.809469745732372],[112.63514893727381,30.810126476555808],[112.63607692700873,30.81058095344838],[112.63679235208554,30.81102511961376],[112.63718139340676,30.811276152772393],[112.6375054272338,30.81150877770807],[112.62554986783232,30.81964550003994],[112.6241321100091,30.820590629054436],[112.62299840665128,30.819546805740686],[112.62239402356556,30.818842485492496],[112.6219419253797,30.818338039569028],[112.6216135604177,30.818033468869658],[112.62094731116963,30.81779552264544],[112.62003884301839,30.817777752041764],[112.62000653487382,30.817425589219738],[112.61978286538715,30.81690210824587],[112.61923558925116,30.816002671985871],[112.61887866991481,30.81539352968781],[112.61854554574052,30.814684450227389],[112.61832187625373,30.814113379828768],[112.61815055450461,30.813627969855077],[112.61783170706781,30.812885577707391],[112.61735105630635,30.811852891597823],[112.61730346688171,30.811629222111094],[112.61728919014422,30.81138175836162],[112.61728443093193,30.810943937812624],[112.61717973455723,30.810020707289993],[112.61699889618228,30.808616825106583],[112.61704172639475,30.808421709094773],[112.61749382368123,30.80744137162219],[112.61804109981711,30.806223087026012],[112.61852650979074,30.805371240190766],[112.61884059891463,30.804857276742098],[112.61901667897678,30.804666919942576],[112.61922607172596,30.804552705143408],[112.61957347263785,30.804438491243559],[112.61987328502425,30.804305241393934],[112.62005888261149,30.804195786706373],[112.620482426423,30.803738930207601],[112.62125337204566,30.802801422048162],[112.62195293398088,30.801873432313243],[112.62236695936781,30.801416575814471],[112.6230998339903,30.800664666141586],[112.62410872493786,30.79960818576933],[112.62497009019773,30.798708749509331],[112.62624072253152,30.797352456750616],[112.62753038991571,30.796077065204543],[112.6280491125766,30.795577378493363],[112.62828229958859,30.795277566106961],[112.62858687118728,30.794849263083165],[112.62893903131146,30.794420960958746],[112.6292055310106,30.794140184522064],[112.62971473524703,30.793726158235756],[112.63033815428253,30.793212194787145],[112.63069507361888,30.79285527545079],[112.63122331380509,30.792260409890162],[112.63160878661643,30.791836866078654],[112.63240352650178,30.791194411093386],[112.63306501653744,30.79066617090723],[112.63351235551102,30.790280698095899],[112.63362975930613,30.790341063289588],[112.6336975735843,30.790373186173781],[112.63383677154991,30.790426723714518],[112.63399024715238,30.790433862532893],[112.63414729126464,30.790430293123677],[112.63430790568543,30.79035177151718],[112.63444710365104,30.790294663667964],[112.63462556331922,30.790019836246586],[112.63476119277504,30.789791408446888],[112.63504672752458,30.789377382160637],[112.63517878757114,30.789177506936539],[112.6353465399111,30.788916956252706],[112.63546075381089,30.788781326796936],[112.63547146203848,30.788663543487928],[112.63561066000409,30.788431546279014],[112.63576770501572,30.788146010630044],[112.63597828666877,30.787878321127778],[112.63622099210522,30.787553524675616],[112.6363994517734,30.787282266663453],[112.63653508032985,30.786961038721131],[112.63670997148813,30.786614827612368],[112.6368170465696,30.786297169978582],[112.63707759815281,30.785822467333162],[112.63736670231162,30.785115767478828],[112.63757728486394,30.784687464455089],[112.6377486057138,30.784362668002871],[112.63786638902286,30.784127101384797],[112.63800915729689,30.783680952214354],[112.63809124831266,30.783117019734846],[112.63821616954078,30.782467426830465],[112.63832324552152,30.781917771987764],[112.6384267520931,30.781446637852241],[112.63849813578054,30.781046889202742],[112.63865518079217,30.780504371379777],[112.6387265644795,30.780222405140023],[112.63877296410124,30.780022530815302],[112.63870871833285,30.779854778475396],[112.6387265644795,30.779322968880081],[112.63875868736375,30.77856273148501],[112.63871942566118,30.777913138580629],[112.63859450443306,30.777170746432944],[112.63846660824754,30.776873314552006],[112.63836250722409,30.776453934601591],[112.63818107259863,30.776019682562492],[112.63807102255987,30.775799582484922],[112.63799666481441,30.77554676507134],[112.63791040903834,30.775356408271762],[112.63788066576024,30.775183896719625],[112.63770220609206,30.774841849471954],[112.63766353974074,30.774785336973878],[112.63728580109898,30.774925130290683],[112.63715492995618,30.774348110876758],[112.63703893180138,30.773893039532311],[112.63691103561598,30.773411198068516],[112.63687831827997,30.773131611434906],[112.63685154905988,30.772899614225992],[112.63677421635714,30.772581361241009],[112.63666119226036,30.772138187027849],[112.63665821820234,30.77192701002366],[112.6365451932063,30.771629577243345],[112.63655411627963,30.771183428072902],[112.63648273259219,30.770993071273381],[112.63636970849541,30.770772971195811],[112.63625965845665,30.770481487430857],[112.63613473632915,30.770172157519198],[112.6360306353057,30.769934211294981],[112.63595330260296,30.769714111217411],[112.6355934092087,30.769327448603008],[112.63506992733551,30.768818838818504],[112.63420439911386,30.767926540477617],[112.63342809982714,30.767040192051411],[112.63296113045203,30.76653158226685],[112.63258041685287,30.766079484081104],[112.63247036681412,30.765990254247015],[112.63234691238029,30.766036059416763],[112.63191622975035,30.76621451908494],[112.63183770724459,30.76620500066042],[112.63175680603194,30.766069371204708],[112.63180915376961,30.766017023467043],[112.63209944863081,30.76590042996105],[112.63215893428753,30.765831424980433],[112.63216131389368,30.765726729505104],[112.63211610407507,30.765612514705936],[112.63197809591259,30.765436434643902],[112.63166876600087,30.765043823913516],[112.63141178382693,30.764755908658401],[112.63129043110871,30.764617900495864],[112.63089068155989,30.764161043997149],[112.63036958019211,30.763559040517464],[112.63004121433073,30.763187844443621],[112.62970095133801,30.762745264682394],[112.62946538471988,30.7624787649832],[112.6290775323024,30.76204808235326],[112.62887765797768,30.761810136129043],[112.62860164075335,30.761588846248401],[112.62826613607353,30.76122478899299],[112.62776407065553,30.760884526000268],[112.62731673168196,30.760606129169673],[112.62689556657733,30.760353906207968],[112.62651485297829,30.76013499593347],[112.62626976883496,30.759966053790492],[112.62621218614368,30.75995320517643],[112.62601421478439,30.760023637381153],[112.62554974372586,30.760183536840941],[112.62509669405733,30.760282522520583],[112.62477730972523,30.760373121122825],[112.62467503702351,30.760066302118332],[112.62451799291125,30.759723660418786],[112.62435143037442,30.759485714194511],[112.62409920741266,30.759271562232982],[112.62336157447726,30.758895607846171],[112.62305700377783,30.758529170984616],[112.62278574486641,30.757915269474267],[112.62251448595498,30.757367993338391],[112.62223371041762,30.756949208739172],[112.621843478394,30.756430486078216],[112.62150083579513,30.755916522629605],[112.62094880134623,30.755283586068799],[112.62072989107185,30.754974256157141],[112.62055381011044,30.754717273983147],[112.62021592672386,30.754084337422398],[112.61990183849923,30.753513267023834],[112.61883108049017,30.752030862334607],[112.61817910887896,30.751302747823729],[112.61738912730652,30.75059842757554],[112.61710359165761,30.750255784976673],[112.61693227080787,30.749955972590215],[112.61638023635896,30.748832866843486],[112.61576633484867,30.74777638647123],[112.61554266536189,30.747409949609676],[112.61514291581307,30.746310638125635],[112.61485738106342,30.745496863189828],[112.61445763151471,30.744597426929886],[112.61383421247911,30.743398178283485],[112.61289051878259,30.741769199389182],[112.61209577799798,30.740712718117607],[112.61162940397401,30.740179719618538],[112.61111544052528,30.739613407532886],[112.61087749430112,30.739299318408996],[112.61056340517723,30.738733007222663],[112.61037780758988,30.73828090903686],[112.61028738795278,30.737833570962721],[112.61025407526552,30.73744809815139],[112.61010654867846,30.736953169753122],[112.60971155834193,30.735972832280538],[112.60928325531813,30.734925869433482],[112.60844092600814,30.732850979689147],[112.60749390122271,30.730814160944931],[112.60656591148779,30.729043841899966],[112.60580924260262,30.728011155790398],[112.6047908332306,30.726859496568693],[112.60347261147206,30.725274775110961],[112.60225908698749,30.723966071776942],[112.60193548033828,30.72366626028986],[112.60114073955367,30.72246701164346],[112.60029841114294,30.721115478096976],[112.60003191144369,30.720634826436253],[112.59904681385956,30.719221426727643],[112.59825207397421,30.717941276868601],[112.59733836097678,30.716461251785518],[112.59645320145421,30.714924119752482],[112.59583454163101,30.714029442704771],[112.59564894404366,30.713877156905426],[112.59466860567181,30.714129379867131],[112.59126597664363,30.715133512501779],[112.59105658389444,30.715171584401276],[112.59056165639549,30.711502454774632],[112.59053605269685,30.711012787410368],[112.59108499617582,30.710774504839719],[112.59192256627364,30.710926790639064],[112.59277917232112,30.711193290338258],[112.59375951069308,30.711497861037628],[112.59458756236631,30.711117147438586],[112.59568211463807,30.710527041090245],[112.59686232733475,30.709946452267104],[112.59700509470952,30.709698988517687],[112.59705268413427,30.709280203019091],[112.59677666690982,30.708414079446356],[112.59653872068554,30.707681205723247],[112.5967005240102,30.707481330499149],[112.59688136328441,30.707434336425649],[112.5968706559562,30.707266584085744],[112.59671718035372,30.707180923660871],[112.59665293458545,30.70705957094259],[112.59666364281304,30.706877542764573],[112.59664222725712,30.706756190046292],[112.59658868971644,30.70655988423141],[112.5965208745389,30.706138720026047],[112.59641023004826,30.705421312843498],[112.59637453775485,30.705132207785311],[112.59635669160821,30.705017993885463],[112.59618537075846,30.704850241545557],[112.59600334168101,30.704375539799514],[112.59589269719038,30.70416852665636],[112.59584986697791,30.704107850297191],[112.59641201430316,30.703905595467006],[112.5964893470059,30.703816365632917],[112.59631088733772,30.70341780588717],[112.59621570848833,30.703173911546969],[112.59607889012887,30.702644481557741],[112.59598966029478,30.702454124758219],[112.59571007366117,30.70235894590877],[112.59559110054897,30.702132897715217],[112.59529961678402,30.701948489031736],[112.59521038694993,30.701716491822822],[112.59487726187626,30.701490442729892],[112.59465716179875,30.701311983061714],[112.59434783188715,30.7004672750449],[112.5943002424624,30.700140098986537],[112.59428239721501,30.699878358499632],[112.59416342410293,30.699646360391398],[112.59395522115676,30.699432209329188],[112.59371727493249,30.699206160236258],[112.59358640468895,30.698992009174049],[112.59311646125582,30.69856370615031],[112.59274764478812,30.698367400335428],[112.59209329267151,30.698224632960603],[112.59160550309161,30.697992634852369],[112.59108251764428,30.697443872137171],[112.59058877904909,30.69703341526008],[112.59008909233796,30.696456395846155],[112.58968458447612,30.695998349544368],[112.58955371423269,30.695921016841623],[112.5893930998119,30.695921016841623],[112.58857813507302,30.694808619322487],[112.58780480984433,30.693767604591471],[112.58773744162977,30.693716297369406],[112.58735553822771,30.693976848952559],[112.58660957667075,30.694433705451331],[112.58578509350741,30.693562822666308],[112.58531396027126,30.693013166924288],[112.58466436736683,30.692324313216659],[112.58441452401121,30.692006654683553],[112.58428603337393,30.691828195015376],[112.58387557649678,30.691414168729068],[112.58346511961975,30.69106081880193],[112.58251214491975,30.690219679294955],[112.58208384189595,30.689877037595352],[112.58186493162145,30.68979137627116],[112.58139855759748,30.689724751796007],[112.58083700472412,30.689629572946615],[112.58062729091694,30.689655031854386],[112.58056316116108,30.689275910055358],[112.58033473336138,30.687919617296643],[112.58012772021834,30.687341408079703],[112.57919972958405,30.685985115320989],[112.5782360484551,30.684400394762577],[112.57782202216879,30.683672279352379],[112.5773437501141,30.682922749285638],[112.5764371759351,30.681230951847112],[112.57615164028618,30.680674158186036],[112.57580899768732,30.6796462312887],[112.57551632411923,30.678725379472837],[112.57523078936958,30.677918742456143],[112.57512371338885,30.677254872814274],[112.57508088317638,30.676690940334765],[112.57510229783293,30.67618411570453],[112.57515940568226,30.67573439712487],[112.57530217305703,30.675356063131971],[112.57563767683746,30.674706470227591],[112.57622302397351,30.673956940160849],[112.57675840297804,30.67337159302474],[112.57796478954356,30.672365080784004],[112.57941388154552,30.671094448450219],[112.58119847732803,30.669459758860967],[112.58232634138767,30.668446108701119],[112.58402527674525,30.667082677124029],[112.58555289125309,30.665883428477628],[112.58600974775186,30.665569340253001],[112.58681638476855,30.665141037229262],[112.58778720471594,30.664627073780593],[112.58873661000678,30.66410597151355],[112.58939334083016,30.663791882389603],[112.58948614007352,30.663756190995571],[112.58978595245992,30.663035214403806],[112.59010004068455,30.662464143105865],[112.59036416077754,30.662114362587943],[112.59078532588228,30.661728889776612],[112.59172045353625,30.661022189922278],[112.59220586351,30.660643855929379],[112.59207737287261,30.658844983409438],[112.59212496229736,30.658113298590024],[112.59224988352548,30.657934838921847],[112.59242239507762,30.657839660971717],[112.5933087444032,30.657851558103062],[112.59467098527796,30.657875352365807],[112.59478995839004,30.657827763840373],[112.59501600748297,30.657637407040852],[112.59593804820258,30.657328077129193],[112.59660429745054,30.657012798202231],[112.59677680810341,30.656929517383503],[112.59708018989897,30.65704254148028],[112.59728839284526,30.657048490495583],[112.59747874964478,30.656953311646191],[112.59774049013174,30.65660234132514],[112.59835914995494,30.655656505443517],[112.59872796642264,30.655174664879041],[112.59916221846174,30.654728515708598],[112.59961431574823,30.654347802109555],[112.5999117485286,30.654097958753937],[112.60000692647861,30.653812423105023],[112.6000961563127,30.653538785486717],[112.60026271884954,30.653265146969147],[112.60034878666738,30.653076461109947],[112.60047410179857,30.652891042487795],[112.60082388231649,30.652502000267248],[112.60119864690023,30.652170065895973],[112.60189820883545,30.651620410153953],[112.60242287961239,30.65117069247367],[112.60309031866348,30.650617467322434],[112.60414323052589,30.649746584537411],[112.60503195855824,30.649004193289045],[112.60598493325824,30.648190417453975],[112.60604204020819,30.648172571307271],[112.60616696143632,30.648290354616336],[112.60649532729769,30.648500937168706],[112.60655957306597,30.64852235182525],[112.60688436951818,30.648240385585495],[112.60719488923291,30.647979834901605],[112.60752682360419,30.647662177267819],[112.60795155721871,30.647251719491408],[112.60844767542005,30.646826985876885],[112.60891880865631,30.646527174389746],[112.60935068108927,30.64628446895324],[112.60973972241038,30.646102439875847],[112.61019300949999,30.645831181863741],[112.61066771214541,30.645609891983099],[112.61093897105684,30.64542072498665],[112.61112456864407,30.64523512650004],[112.61148862679886,30.645142327256735],[112.61191336041338,30.645013836619455],[112.61230597114388,30.644796116148029],[112.6128556268859,30.644457042958322],[112.61351592711856,30.644043016672072],[112.61395136806141,30.643764619841477],[112.61453314668756,30.643429116061043],[112.61510778649529,30.64308647346212],[112.61586802478973,30.642629616963404],[112.61644980251651,30.642290543773754],[112.61714936445173,30.641922917109127],[112.61802024723681,30.64155885895434],[112.61824153711746,30.641209078436361],[112.61886257564754,30.640952097161744],[112.61930872481798,30.640784344821839],[112.6198191197567,30.640538070875436],[112.62054723426763,30.640191858867354],[112.62146094726506,30.63972072563115],[112.62190352702635,30.639503005159725],[112.62266019591152,30.639586285978453],[112.6236214983337,30.639652911352925],[112.62490164819269,30.639657669665894],[112.62606282493959,30.639529179028557],[112.62758568023514,30.639581527665541],[112.62797115304647,30.639629116190918],[112.62866119655712,30.639572009241022],[112.62945117723018,30.639595804403029],[112.63035061349024,30.639495866341349],[112.63163076334922,30.639600562715941],[112.63264917272136,30.639671946403382],[112.63348495856417,30.639755822573306],[112.63351351203914,30.639751064260395],[112.63356110146378,30.639451251873936],[112.63367531536369,30.639384626499464],[112.63474131416046,30.639560706561497],[112.63663060631757,30.639855759735667],[112.6370351141793,30.640088947646973],[112.63745865889018,30.640336411396447],[112.63783937248922,30.640531527408257],[112.63855321116193,30.640645741308106],[112.63948120089685,30.640836098107627],[112.64063761843147,30.641159704756717],[112.6418559030277,30.641469034668376],[112.64301707977461,30.641664150680185],[112.64384037313494,30.64204010506694],[112.64464463054549,30.642297087240934],[112.64533943326842,30.642406541928551],[112.64575821876701,30.642463649777767],[112.64562020970504,30.642868157639555],[112.64631977164038,30.643039479388619],[112.64784738524884,30.643267907188317],[112.64885627709566,30.643477299937615],[112.64995082936741,30.643672415949425],[112.65045527439156,30.643463023200127],[112.65130236291384,30.64331549661307],[112.65244450371108,30.643543924412768],[112.65322496685894,30.643715246161833],[112.65342008287075,30.644034093598691],[112.65373893120693,30.644114995710652],[112.65403398438104,30.643938915648619],[112.65421958196828,30.643838977586938],[112.65471926867951,30.64414830749854],[112.655138054178,30.644419566410022],[112.6556900886269,30.644476673359975],[112.65643723998676,30.644557575471879],[112.65719390797267,30.644714619584192],[112.65770787142128,30.644800280009065],[112.65807906749512,30.644809798433641],[112.65842171009399,30.645114369133012],[112.6588357363803,30.645499841944343],[112.65934018230371,30.645790135906225],[112.66006829681464,30.645999528655466],[112.66082020648753,30.646142296030291],[112.661472178998,30.646270786667628],[112.66213366903378,30.646132778505091],[112.66309973066825,30.645994769443234],[112.66357562221742,30.645966215968258],[112.66405151466586,30.646232715667452],[112.66561244096158,30.64675619754064],[112.66717812646948,30.647208294827124],[112.66843448206589,30.647736535013223],[112.66992878388646,30.648150561299531],[112.67028570232344,30.64834567731134],[112.67084249688389,30.648350435624252],[112.67202746789349,30.648812051335256],[112.67322671653994,30.649130898772114],[112.67332189448996,30.649497336533045],[112.6732933410151,30.649844737444823],[112.673374243127,30.650244486993643],[112.67345990355193,30.650477674005629],[112.67394055521265,30.650615683067485],[112.67414994706257,30.650629959804974],[112.67453541987391,30.650867906029191],[112.67503986579732,30.651096333828889],[112.67551099903358,30.651258137153491],[112.67598689148201,30.651477047427989],[112.67641995281872,30.651591262227157],[112.6769481939042,30.651791136551878],[112.6775097458783,30.651995770088888],[112.67802371022617,30.652190886100698],[112.67858526309954,30.652333653475466],[112.6792751474303,30.652603722583876],[112.67966062024163,30.652746489958702],[112.6803566127677,30.653035595016888],[112.68085986888798,30.653192639129145],[112.68129530983083,30.653331837994074],[112.68173432108222,30.653424636338059],[112.68254452750807,30.653738725461949],[112.68374377525515,30.654213428107369],[112.68453256702458,30.654520378412883],[112.68501797699821,30.654581054772052],[112.68560332413426,30.654509671084611],[112.68594596673313,30.654374041628898],[112.68632430072603,30.654259827729049],[112.68695961689298,30.654224135435641],[112.68740219665426,30.654188443142289],[112.68818146999899,30.65430979586057],[112.68875967921599,30.65438474895717],[112.68925936592711,30.654416871841306],[112.68927007325544,30.654563208625348],[112.68932718110466,30.654677422525197],[112.68934145784215,30.654805914061853],[112.68940213420126,30.654934404699191],[112.68941641093875,30.655016495714847],[112.68989468209406,30.654998649568199],[112.69026230875875,30.655005788386575],[112.69087621026904,30.654998649568199],[112.69161503210819,30.654959388764951],[112.69216111844105,30.654912989143327],[112.69284640363878,30.654902281814998],[112.69343888959327,30.654898712405839],[112.69371014760543,30.65488800507751],[112.69438115606567,30.654880866259134],[112.69482373582696,30.65488443566835],[112.69531985312892,30.654766652359285],[112.69645128659772,30.654595331509483],[112.69733644612029,30.654463271462987],[112.69817877543028,30.654388318366387],[112.69927808691432,30.654259827729049],[112.70020250724008,30.654170597894961],[112.70101985248436,30.654106352126632],[112.70185861238519,30.654006414964272],[112.70230833006553,30.653992138226783],[112.70292223157594,30.653935031276831],[112.70358610121775,30.65381010914939],[112.70408578792899,30.653656634446293],[112.70444627577513,30.653478174778115],[112.70477821104578,30.653185500310769],[112.70511371482621,30.652846427121062],[112.70543494186927,30.652543046224764],[112.70568478522489,30.652146866085161],[112.70608810418287,30.651565087459005],[112.70658065207556,30.650726327558118],[112.70694827963962,30.65015882656877],[112.70746581159813,30.649295081702803],[112.70804045140585,30.648352815230396],[112.70824032662995,30.648053003743314],[112.70865613717115,30.646876062780223],[112.70902733324499,30.64569109087131],[112.70961981919947,30.643963602038752],[112.71003384548578,30.642957089798017],[112.71032651905375,30.642050515618962],[112.7103479337103,30.641741185707303],[112.71023847902279,30.640984516822186],[112.71009095243573,30.640089839774475],[112.71000053279852,30.639376001101709],[112.70997197932354,30.63883824339041],[112.70980541678671,30.638367110154149],[112.70936759623771,30.637824592331242],[112.70884411436452,30.637210691720213],[112.70853954366521,30.63673004095881],[112.70793516057938,30.636082827660516],[112.70743547386814,30.635578381737105],[112.70686916178261,30.635259533400927],[112.70581268141029,30.634774123427235],[112.70540817354856,30.634521900465472],[112.70516070889983,30.634431481727688],[112.70360454181628,30.633969866016685],[112.70268606960656,30.63372240226721],[112.70096333998629,30.633465420093216],[112.69925488710351,30.633203679606311],[112.69795094208246,30.633018081119701],[112.69655657832357,30.632870554532644],[112.69577135596353,30.632884832169452],[112.69540491910186,30.632842001057668],[112.69492426834051,30.63281820679498],[112.69430084930491,30.632751582319827],[112.69375357316903,30.632703992895131],[112.69298738675866,30.632627849995458],[112.692216441136,30.632537430358298],[112.69182145079947,30.632489840933601],[112.69154067436284,30.632494600145833],[112.69114568402631,30.632537430358298],[112.69066503236547,30.632461287458625],[112.69046039882846,30.632413698033929],[112.69012727465417,30.632323279296088],[112.68967517736769,30.632232859658927],[112.68856634835845,30.632090091384782],[112.68665802025157,30.631880699534804],[112.68501262333405,30.631642753310587],[112.68450698760762,30.631577317739186],[112.68376935467211,30.631458344627049],[112.68343623049782,30.631452396511065],[112.68298413231207,30.631428601349057],[112.6825022917476,30.631434550364361],[112.68224649937667,30.631422653233017],[112.68150886644116,30.631279884958872],[112.68074743924308,30.631154963730751],[112.67981350049286,30.630994350209278],[112.67954581099059,30.630976504062573],[112.67899258673867,30.630881325213181],[112.67827874806596,30.630768301116348],[112.67747568045843,30.630613636610178],[112.67675589366968,30.630500611614082],[112.67584574918214,30.630351895223953],[112.67541149804242,30.630262665389864],[112.67497129788728,30.630215076864488],[112.67455489199483,30.630167487439735],[112.674388329458,30.630084205721687],[112.67406115339963,30.629626160319219],[112.67326403480752,30.628525659032107],[112.67262157982225,30.62762741257518],[112.67227655761724,30.627187212420097],[112.67173523049667,30.626413887191291],[112.67126528706353,30.625830919661382],[112.67097975141462,30.625396667622283],[112.67088457346449,30.625087337710625],[112.67078344649906,30.62451626731206],[112.67043842429405,30.62283279849504],[112.67023022134777,30.621946449169457],[112.67000417315421,30.620798359356968],[112.66984355873342,30.620078572568218],[112.6697245865206,30.619787088803264],[112.66943905087169,30.619453963729597],[112.66840993417134,30.618466487438582],[112.66827961161493,30.618281121876464],[112.67030215362172,30.616651190600123],[112.67060256046,30.616310333155525],[112.67060256046,30.615996244031578],[112.67045979308512,30.615653601432712],[112.66962460169418,30.614554290847991],[112.6684253539471,30.612912462440363],[112.6667906643579,30.610856608645747],[112.66515597386922,30.608650847758554],[112.66242831841237,30.604786999620501],[112.66085787459144,30.60282394506919],[112.65950158183273,30.601063143549425],[112.65870446234123,30.600004283570968],[112.65796682940584,30.598981114986657],[112.66178586432636,30.599064396704705],[112.66554660249392,30.599101872353685],[112.66583511220085,30.599107821369046],[112.66582808130113,30.599438463414515],[112.66584367824328,30.599438090195861],[112.66593580209576,30.59943673581688],[112.66593600714123,30.599436733118921],[112.66593596487303,30.599443213633549],[112.66595681385604,30.599443431269492],[112.66597312126271,30.599436187230424],[112.66597783730754,30.599431158221535],[112.66597816466071,30.599407711996491],[112.66597175609184,30.599407887364293],[112.6659708846488,30.599389818185728],[112.66597841557154,30.599389676092869],[112.66597884274961,30.599359016405629],[112.66597258886407,30.599358950755118],[112.6659692532786,30.599355995582869],[112.66596603730295,30.599289304557942],[112.66596628371724,30.599231958388316],[112.66600105150746,30.599244422092568],[112.66605673123331,30.599264409525063],[112.66610098866988,30.599272975567544],[112.66614025037245,30.599269407057648],[112.66619236068902,30.599246564277678],[112.66624090159655,30.599242280806777],[112.66623019426822,30.599435017212443],[112.66629729448471,30.599440727907449],[112.66635582955803,30.599440727907449],[112.66635725678213,30.599218723965123],[112.6663593989673,30.599150909686898],[112.66635808955436,30.599144841961049],[112.66715092647428,30.59915079097641],[112.66714378765585,30.599567195969485],[112.66717915799188,30.599570271650862],[112.66717618213522,30.599662332550793],[112.66718376252084,30.599662374818934],[112.66753604855001,30.599666876825097],[112.66753973217305,30.59955661274762],[112.66761230566351,30.599557326809361],[112.66761115722932,30.599667836401693],[112.66762540788648,30.599668018964053],[112.66762854562103,30.599556790813438],[112.66770141678717,30.599557088489007],[112.6677011281048,30.599668986634583],[112.66772594489657,30.599669303195924],[112.66772907813458,30.599556790813438],[112.66780878954421,30.599557683840203],[112.66780793518819,30.599670178236295],[112.66781545082256,30.599670227698994],[112.66781830706941,30.599557683840203],[112.66789920918131,30.599557683840203],[112.66789920918131,30.599670786178024],[112.6679473130182,30.599671107235963],[112.66795155691898,30.599557088489007],[112.66803573076459,30.599558872743955],[112.66803293117505,30.599671678305469],[112.66803887209642,30.599671717875651],[112.66804167977989,30.599558575967649],[112.66812466292299,30.599558575967649],[112.66812326267859,30.599672279951903],[112.66814059801038,30.59967239596449],[112.6681434011972,30.599558575967649],[112.66822846717025,30.599558872743955],[112.66822650484949,30.599672968832635],[112.6682316201933,30.599673002107522],[112.66823471296186,30.599558278292079],[112.66831769700434,30.599558575967649],[112.6683151851978,30.599673559687176],[112.66835065086207,30.59967379620889],[112.6683525538275,30.599474873366887],[112.66834589164978,30.599350189559743],[112.66855562524211,30.599349551940406],[112.66855663967738,30.599329793835068],[112.66855767119978,30.599307297294104],[112.66871923710323,30.599309400808352],[112.66885715083697,30.599311257009049],[112.66892339489891,30.599312113163649],[112.66892425105357,30.599291412568789],[112.66907744067157,30.599293696846814],[112.66924966623924,30.599296932607501],[112.66925000708238,30.599334419048375],[112.66926674256626,30.599331629351354],[112.66927460264094,30.599331791229361],[112.66927467458675,30.599324367325835],[112.66927989964779,30.599324382614327],[112.66928067036679,30.599292958503383],[112.6693160056293,30.599293458526461],[112.66937989436678,30.599294386626809],[112.66943328891534,30.599294886649886],[112.66947683318949,30.599295028742745],[112.66953486823979,30.599295956843093],[112.66959568759114,30.5992965279126],[112.66963523258005,30.59929691282241],[112.66963522988215,30.599296270706475],[112.66978378439433,30.599297880492941],[112.66995107628134,30.599300220528903],[112.67847073623568,30.599390164424733],[112.67847311584183,30.599463451976874],[112.67866442412401,30.599464403459592],[112.67866252025931,30.599238831007426],[112.68755961128716,30.599325442915017],[112.68780707503663,30.59932353905026],[112.68846761358964,30.599335912822312],[112.68878931637403,30.59937874303472],[112.68948221523226,30.599481535544612],[112.68932885923959,30.599919356093551],[112.68908942553674,30.600579359549954],[112.6892036403359,30.601364581910104],[112.68928930076083,30.601899960015317],[112.6894820371665,30.602299709564136],[112.68996387773097,30.60261022927881],[112.69005359229959,30.602663300071413],[112.6894289618773,30.602941733774173],[112.68890429110036,30.603184439210679],[112.68877936897286,30.603348622141368],[112.68864730892631,30.60340929850048],[112.68721606307099,30.60356991202201],[112.68636630985748,30.603666279775155],[112.68555253402235,30.603761934365934],[112.68493292271637,30.60383617340085],[112.68461026754994,30.603874721041734],[112.68451033038764,30.603920406601674],[112.68440610975438,30.604008922374021],[112.68433044349536,30.604106004188907],[112.68425905980791,30.6042130801697],[112.68418196452626,30.604287319204559],[112.68411914688124,30.604382973795396],[112.68411343618629,30.604467206996162],[112.68414484500875,30.604594269510073],[112.68415769452213,30.604698490143392],[112.68413342361873,30.604741320355799],[112.68402063694305,30.604849823560698],[112.68391927255652,30.60493120141399],[112.68381219657579,30.605166768032063],[112.68369227198093,30.605442309515126],[112.68358091342861,30.605656461476656],[112.68346098793438,30.605863474619809],[112.68338960424705,30.605974833172183],[112.68328966708464,30.606140443326979],[112.6832257468709,30.606258020691257],[112.68311391167788,30.606462654228267],[112.68311629128402,30.606542366537155],[112.68309368682435,30.606607801209236],[112.68301635412161,30.606668477568348],[112.68290451982796,30.606782691468197],[112.68282718712521,30.606912372807926],[112.68261779437591,30.607212184295008],[112.68247502700103,30.607400161488442],[112.68236200200499,30.607564344419131],[112.68215261015496,30.607874864133862],[112.68205981091171,30.608004544574214],[112.68188373084968,30.608230593667145],[112.68180758794995,30.608303167157601],[112.68179473843657,30.608391682930005],[112.68181758211585,30.608850443293477],[112.68182329281092,30.609035089398049],[112.68174334218168,30.609181664502387],[112.68169956048655,30.609318721182206],[112.6817052711815,30.609434838946811],[112.68167481384171,30.60954905284666],[112.68146732495723,30.609790806800447],[112.68131427833146,30.610013523905195],[112.68102017664,30.610360449075642],[112.6807189370295,30.610783041404375],[112.68051335111045,30.611038595455],[112.68042483533804,30.611125684003298],[112.68024209309829,30.611351257354784],[112.6800879043335,30.61153828216618],[112.67991372723691,30.611759572046765],[112.67965817318634,30.612113636035645],[112.67943831142907,30.612392032866182],[112.67928840523587,30.612600474132762],[112.67899144819694,30.613003079029056],[112.67860740350909,30.613495865242157],[112.67856124130844,30.613560586751817],[112.67853958833155,30.613625188651724],[112.67870285934964,30.613642130080393],[112.67894270853935,30.613746826455042],[112.67940527663234,30.61396573672954],[112.6794205048526,30.614022843679436],[112.67950806914223,30.614123733223892],[112.67958230817715,30.614190357698988],[112.67961086165212,30.61425698307346],[112.67962228304214,30.61432931824362],[112.67962418690684,30.614403557278536],[112.67985451857135,30.614883256557221],[112.67990972165649,30.61496130332165],[112.67997634703102,30.614963207186406],[112.68013434262593,30.615026024831366],[112.68049982800483,30.615237320546044],[112.6806958954993,30.615330595530736],[112.68077394226384,30.615427677345622],[112.68087673477362,30.615576156314717],[112.6809471669784,30.615709406164342],[112.68110516347269,30.61594735148924],[112.6812840988822,30.616204333663234],[112.68142877012178,30.616375654513035],[112.68146684112196,30.616415630277288],[112.68181709828059,30.616708779586702],[112.68200174438516,30.61686487221624],[112.68223588287992,30.617106625270708],[112.68263372856393,30.617504470954714],[112.68286786795795,30.617746224009181],[112.68289832529763,30.617801427993697],[112.68315149974205,30.61817833476249],[112.68324287086193,30.618355366307298],[112.68343132379675,30.618589505701266],[112.68352459878133,30.618705623465928],[112.68373970222569,30.618842680145747],[112.68410328373977,30.619046362200038],[112.68463628313816,30.619352836764165],[112.68498844326223,30.619535579003923],[112.68538057825128,30.619750682448228],[112.68562423517051,30.619842053568107],[112.68603350314379,30.619862993382583],[112.68663312701733,30.619889642992803],[112.68721371584047,30.619920100332536],[112.68738503669022,30.619914389637529],[112.68754874387957,30.620005760757408],[112.68775813572961,30.620022892842371],[112.68850243174199,30.620059060877111],[112.68884888117111,30.620083806622517],[112.68914012661571,30.620340788796511],[112.68941804770486,30.620590156410742],[112.68979114764352,30.621048915874951],[112.68990345857787,30.621191684149096],[112.6899891190028,30.621281151404162],[112.69009571834295,30.621378234118367],[112.69020612541249,30.621442954728764],[112.69029940039718,30.621509580103179],[112.69039267538187,30.621625697867842],[112.69063252457158,30.621875065482072],[112.69071437816615,30.621987375517108],[112.69080003949045,30.622116818536483],[112.69088760288071,30.622282428691278],[112.69095042142499,30.622423293100667],[112.69101133520508,30.622562253645242],[112.69112364613954,30.62276783866497],[112.69120930656447,30.622893474854152],[112.69129306312459,30.623007688754001],[112.69138633810917,30.62311238512865],[112.69152149182355,30.623245634978218],[112.69157479194325,30.623302741928171],[112.69164332028322,30.623399823743057],[112.69175753418301,30.623542591117825],[112.69187745877787,30.623704394442427],[112.69196692693231,30.623900461936955],[112.69199357654247,30.623963280481178],[112.692008805662,30.6240527477363],[112.69204497279748,30.624123179940966],[112.69211540500214,30.624300211485718],[112.69218012651186,30.624401101030173],[112.69227530446187,30.624570518914481],[112.69240284361649,30.62472090084907],[112.69249231177093,30.624831307918669],[112.69252847980567,30.624905546953585],[112.69256417119971,30.624940762606286],[112.69270396451657,30.62511029920114],[112.6928705270534,30.625303630957944],[112.69307278098427,30.625488038742162],[112.69320067716967,30.625568345502927],[112.69338211089587,30.625633781074328],[112.6935427244174,30.625708138819732],[112.69362600613545,30.625764651317752],[112.69375687637887,30.625824137873849],[112.69400969379251,30.62594905910197],[112.69415543612467,30.626035314878038],[112.69430117755746,30.626127518770147],[112.69463430263113,30.62622864573558],[112.69497040176282,30.626323824585029],[112.69533624327323,30.626410079461778],[112.69570505974093,30.626535001589218],[112.69595192903842,30.626609359334623],[112.69641294939822,30.626766998798132],[112.69668063890049,30.626814588222828],[112.69709704479294,30.626921664203621],[112.69737960548457,30.626966278670977],[112.69770975560095,30.626921664203621],[112.69777816523026,30.626823511296152],[112.69780493445035,30.62651418138455],[112.69788821526913,30.626192954341548],[112.69796257391386,30.625850906194557],[112.69803990571722,30.625410706039418],[112.69817077686002,30.62511029920114],[112.69836708177559,30.625003223220347],[112.69859313086852,30.625047838587022],[112.69874620357461,30.625126888095565],[112.69877621125329,30.62518536561231],[112.69895467092147,30.625367394689704],[112.70016462689614,30.626081232463093],[112.70133889147678,30.626791501726586],[112.70237752570245,30.627405403236935],[112.70373381846116,30.62828699335023],[112.70584678010505,30.629540969340439],[112.70654634114089,30.629717049402473],[112.70753619703805,30.629864575989529],[112.70909236502075,30.630231012851141],[112.71151941488927,30.630987681736315],[112.71209524450012,30.631239903798701],[112.71235698498708,30.631573028872367],[112.7131612432969,30.633081607430427],[112.71365141248282,30.634023873902834],[112.71398453665722,30.634961381162952],[112.71401784934449,30.63506131832537],[112.71448422336834,30.635451550348932],[112.71542173152784,30.636203460021818],[112.71601659618909,30.636745976945463],[112.71649248863764,30.637336083293746],[112.7173681306349,30.63849250172774],[112.71775360254685,30.639168268500953],[112.71863876206942,30.641400202357602],[112.71885291403089,30.642166388767976],[112.71912893125534,30.643679726538323],[112.71932404726715,30.645240652834048],[112.71942398442957,30.646144848306278],[112.71951440406667,30.646701641967354],[112.71964289470395,30.647872336239516],[112.71966668986602,30.648357747112527],[112.71961910044126,30.64906206736066],[112.71952868080416,30.649885360720987],[112.71930977052966,30.651113162842364],[112.71921459168027,30.651474840491687],[112.7190670650931,30.651922179465203],[112.71880532460625,30.652459937176502],[112.71861972701902,30.652678847451],[112.71809148593354,30.653130945636804],[112.7172729517855,30.65377815893504],[112.71635923878796,30.654392059546069],[112.71516950856619,30.655172522693931],[112.71350864420879,30.65627659249094],[112.71186681670042,30.65719982391289],[112.71105779917832,30.657718546573847],[112.70917326623339,30.659051044170496],[112.70719831365147,30.660369265929035],[112.70647495745345,30.660868952640215],[112.70585153931722,30.661397192826371],[112.70497589731997,30.662072959599584],[112.70398128221063,30.662943842384607],[112.70355773839913,30.66323889555872],[112.70263450787638,30.663781413381685],[112.70208247252822,30.664009841181382],[112.70129249185516,30.66421923393068],[112.69980294924687,30.664609465054923],[112.69929374411117,30.664676090429396],[112.69856562960035,30.664561876529547],[112.6980897371518,30.664504768680274],[112.69753294349073,30.664480974417586],[112.69633845405656,30.664352483780249],[112.69553895495903,30.664309653567841],[112.69505830419757,30.664290617618065],[112.69467758969915,30.664395313992713],[112.6943016353124,30.664618983479443],[112.69332129694044,30.665113910978391],[112.69278353922914,30.66524716082796],[112.69235047699306,30.665213848140752],[112.69200307608128,30.665166259615376],[112.69161284405766,30.66524716082796],[112.69078955069733,30.665508901314922],[112.68943325793873,30.665899133338485],[112.68772956426812,30.666422614312353],[112.6871251811823,30.666684355698635],[112.68654459235927,30.667046033347901],[112.68636851229724,30.667283979572176],[112.68623526244755,30.667569515221089],[112.68610677181027,30.667740836070891],[112.68588310232349,30.667869326708228],[112.68538817392528,30.668002576557853],[112.68475523736447,30.668135826407422],[112.6840937473288,30.668269076257047],[112.68371303372965,30.668378531843928],[112.68309913311862,30.668573647855737],[112.68222825033365,30.66875924544297],[112.68083864488767,30.669120923092294],[112.67995824457751,30.669382664478576],[112.67922536995502,30.669568262065809],[112.67874947840585,30.669706271127666],[112.67834021043257,30.669872832765179],[112.67801660378336,30.669968011614628],[112.67785004214591,30.66996325240234],[112.67729800679774,30.669839520977291],[112.67654609712486,30.669639645753193],[112.67560858986474,30.669401699528976],[112.67517076841636,30.669382664478576],[112.67469963518022,30.669392182003776],[112.67448548411801,30.669377905266288],[112.674171394994,30.66926844967935],[112.67340520858363,30.668959119767749],[112.67138266657696,30.66765041643373],[112.67024528409274,30.666589176849186],[112.66928398256994,30.665608839376603],[112.6679657608114,30.664371518830706],[112.66666181579035,30.66331503845845],[112.66546732635618,30.662063442074384],[112.66413006954724,30.660802328165062],[112.66267383962622,30.659388927557131],[112.66141748402981,30.658308652922187],[112.66045142329472,30.657504394612261],[112.66003739700841,30.657176028750882],[112.65986131694638,30.656947600951185],[112.65979469157196,30.656728690676687],[112.65977565562218,30.656509780402189],[112.6597423438343,30.656224244753275],[112.65969951362183,30.655924432366817],[112.65956626377226,30.655719798829807],[112.65938066528565,30.65547233508039],[112.65893808552437,30.655120174956267],[112.65855261271304,30.654858434469361],[112.65781973898993,30.654453925708253],[112.65689174925501,30.654173149271571],[112.65599707220724,30.654063694584011],[112.65559256344625,30.653987551684338],[112.65533558217157,30.653916167996897],[112.65495010936024,30.653702016035368],[112.65383652113871,30.653035766787355],[112.65208523804347,30.652141089739644],[112.65043389211064,30.651517670704095],[112.64916325977674,30.651089367680356],[112.64741673589378,30.650484984594527],[112.64609851413525,30.65005192325782],[112.64531805098738,30.64984728972081],[112.64388561532905,30.649518923859432],[112.64264353647025,30.649390433222095],[112.64112068207396,30.649276218422926],[112.64076376273761,30.649304771897846],[112.64042587935103,30.649438021747471],[112.63980721952771,30.649733074921642],[112.63929801439201,30.649899637458475],[112.63875073825614,30.649956744408371],[112.63796075758307,30.649947226883171],[112.63693283068574,30.64995198519614],[112.63638079533757,30.649932950145683],[112.63540521617801,30.649875843195787],[112.63437253006839,30.649913914195963],[112.63353020075829,30.649975780358147],[112.63272118413556,30.650047164045532],[112.63213107778722,30.650109030207716],[112.63180747113802,30.65005192325782],[112.63133157958885,30.649880601508698],[112.63034648200471,30.649528441384632],[112.6296040907564,30.649271460109958],[112.62921859096537,30.649178096991761],[112.62899494845828,30.649123933522901],[112.62796702156095,30.649009718723732],[112.6274102270005,30.649000201198476],[112.62642513031574,30.64905254893614],[112.62586357744237,30.649047790623229],[112.62517353393162,30.649119174310613],[112.6245548741083,30.649271460109958],[112.62384579464788,30.64956175407184],[112.62347459857403,30.649714039871185],[112.62287021548821,30.650109030207716],[112.62166620852884,30.651017983992915],[112.62028136229526,30.652022116627563],[112.61902500669885,30.652897758624817],[112.61849200730046,30.653268953799341],[112.61758781272761,30.653687739297879],[112.61647422450608,30.654211221171067],[112.61529877102168,30.654758496407624],[112.61428987917475,30.65526770154338],[112.61269088187885,30.656148101853603],[112.61158205286961,30.656833387051336],[112.61048274138557,30.657494877087061],[112.60889326161487,30.658479973771932],[112.608222254054,30.658989178907632],[112.60812231689158,30.659231883444818],[112.60804141477968,30.659636392205925],[112.60789388819251,30.659983793117703],[112.60759883501839,30.660226498554209],[112.6069611392453,30.660592935415821],[112.60563815917385,30.661273461401265],[112.60484817850079,30.661668451737796],[112.60431041989011,30.662063442074384],[112.60404392019097,30.662348977723298],[112.60391067034129,30.662724932110109],[112.60359658211678,30.663491118520483],[112.60285418996909,30.664866447228917],[112.60184529812216,30.666470203737106],[112.60127898693588,30.66735536325956],[112.60058418421295,30.668378531843928],[112.60015588118915,30.668997191667245],[112.59961812257848,30.669868074452268],[112.59896615096727,30.67098166177442],[112.59839032135642,30.671843027034242],[112.59778593827059,30.672594936707128],[112.59731480503444,30.673018480518635],[112.59686746606087,30.67336588143047],[112.59656765367447,30.673660934604641],[112.596320189925,30.674055925840491],[112.59600610080111,30.67457940681436],[112.59581098568856,30.675126682950236],[112.59571580683917,30.675783414672992],[112.59557779777731,30.676744716195856],[112.59543503040254,30.677396688706381],[112.59522087934033,30.678286607441123],[112.595163771491,30.678700633727431],[112.59508287027836,30.679162248539114],[112.59489727179187,30.680999192958552],[112.5948449240542,30.682360244929498],[112.59478305789196,30.68264102046686],[112.59470215667932,30.682878966691135],[112.59463077299199,30.683121672127641],[112.5945451116678,30.683868822588238],[112.5945451116678,30.684373268511706],[112.59463077299199,30.6846397682109],[112.5949448612165,30.685239392084441],[112.5950543168035,30.685572517158107],[112.59512094127854,30.685977025019838],[112.5953731642403,30.687009711129406],[112.59556352103982,30.688327932887944],[112.59570153010168,30.689213092410455],[112.59606796696323,30.689931689396133],[112.59655813614927,30.690507519006985],[112.59754323283414,30.691245151942383],[112.59835700866915,30.691849535028211],[112.59944204251644,30.692758488813354],[112.60029864856392,30.693624613285465],[112.60123139751113,30.69460019154576],[112.60227360114595,30.695837511192337],[112.60303027003113,30.696822608776529],[112.60402964345349,30.69831690969778],[112.60468637517624,30.699349595807348],[112.60593797156037,30.70113895080209],[112.60711342504476,30.702866439634647],[112.60846971780336,30.704770008529238],[112.6098926359366,30.706875831354694],[112.61035068133901,30.707893050923701],[112.61061242272535,30.708434378044274],[112.6108741632122,30.708648530005803],[112.61118944213922,30.708844834921365],[112.61164748754175,30.709023294589542],[112.61211743187414,30.709189857126376],[112.61239106949245,30.709314778354496],[112.612663518207,30.709477771482113],[112.61307040567488,30.709845398146797],[112.61365575281093,30.710470006985418],[112.61466940387004,30.711608579272706],[112.61504773786294,30.712204633737031],[112.61569733076738,30.713307514630287],[112.61626483175678,30.71449248563988],[112.61684661038294,30.715877331873514],[112.61722494437583,30.71675535347697],[112.61744980366564,30.717290732481501],[112.61773533931466,30.718479272900311],[112.61783527647697,30.719103881738931],[112.61779958418367,30.719571445565919],[112.61774247723372,30.720074701686315],[112.61780672300199,30.720285283339308],[112.61802801288263,30.720638633266503],[112.61837779340067,30.721084782436947],[112.61855268365957,30.7213453340201],[112.61863477557461,30.721698683947295],[112.6188382193086,30.722473198079797],[112.61919513864495,30.723269127768219],[112.61969125594692,30.724082903603289],[112.62028017249213,30.724953786388312],[112.62112963972129,30.72625654070697],[112.62205762945621,30.727680648643172],[112.62296420453458,30.729061925467647],[112.62335324675507,30.729650842012916],[112.6241705911001,30.730650215435276],[112.62518067275005,30.731806633869212],[112.62574817373945,30.732363427530345],[112.62652625728117,30.733173633956199],[112.62697954526993,30.733619783126642],[112.62712231264481,30.733862488563148],[112.62727578824718,30.734215838490343],[112.62760058469939,30.734979645294572],[112.62770765978087,30.735268749453382],[112.62770052186181,30.735507885480672],[112.62765412224007,30.73571132921461],[112.62755775358767,30.735868374226243],[112.62723652654461,30.736403752331455],[112.62710446649805,30.736642888358801],[112.62707234361392,30.736824917436138],[112.62708662035141,30.737014084432587],[112.62716871226644,30.737167559135685],[112.62729006498466,30.737253220459934],[112.62758630796191,30.737378141688055],[112.62790039618653,30.737510201734608],[112.62845005192855,30.737892105136723],[112.62882481741156,30.738188348113965],[112.62945656416923,30.738798680215098],[112.63002929201843,30.739475298646255],[112.63012299148306,30.739585995297602],[112.63044566103861,30.73999587211199],[112.63065373538177,30.740268602314302],[112.63100255812174,30.740791835974619],[112.63120957126489,30.741220138998358],[112.63140434013837,30.741653332535407],[112.6314481730949,30.741761109088088],[112.63170593767904,30.742358369543297],[112.63180011828103,30.742607006908031],[112.63180373445493,30.742617239394235],[112.63193849876291,30.743028270938112],[112.63195675859765,30.743143701620681],[112.63207331523154,30.744082630708988],[112.6321149007822,30.744339074189099],[112.63214416472158,30.744591477914526],[112.63221621660534,30.745412237884636],[112.63223036024306,30.745610245216824],[112.63231602066799,30.747152135562771],[112.63238026553699,30.748865347657841],[112.63239454227448,30.749150882407434],[112.63242828753562,30.749209935490285],[112.63243683918893,30.749249272735938],[112.63248176751972,30.749303527036318],[112.63250875707365,30.749350757631532],[112.63257929629765,30.74942129685553],[112.63262600618543,30.749477701434955],[112.63313996963404,30.749977388146135],[112.63353351565945,30.750424296344363],[112.63377225058912,30.750714188309303],[112.63394331333348,30.75097078287547],[112.63402869856577,30.751108821614991],[112.63407612251524,30.75120959784482],[112.63413590584753,30.751371867917555],[112.63415369533698,30.751438754095375],[112.63424586325618,30.751856221187836],[112.63426069577463,30.75193687418755],[112.63428995162019,30.752092904763913],[112.63432904425019,30.752327463242011],[112.63432904425019,30.752612998890925],[112.6342505226437,30.753012747540424],[112.63410775436955,30.753526711888412],[112.63388646448891,30.754226272924313],[112.63387218775142,30.754504669754851],[112.63389596582635,30.754559012188849],[112.63397159071656,30.754742258948284],[112.63399419967277,30.754783519843727],[112.63404534321819,30.754900403830732],[112.63429866964805,30.755416799945522],[112.63434635619956,30.755523911899161],[112.63447227027928,30.755803210749718],[112.63473776633498,30.756499402025952],[112.63486798906661,30.756745049144854],[112.63492099600728,30.7568730658395],[112.63534412163403,30.757665069087807],[112.63578710878824,30.758533841164024],[112.6358694453188,30.758687915714916],[112.63594892290462,30.758843259209186],[112.63645574843417,30.75978552658097],[112.63645834028034,30.759789908077948],[112.63650808538,30.759882995104306],[112.63704346438453,30.760782431364305],[112.63764308825807,30.761938849798241],[112.63807139128187,30.762745486814936],[112.63811202624913,30.762812970142647],[112.63826889769166,30.763109633103227],[112.63872694399345,30.763847266038681],[112.63892454483209,30.764210205436768],[112.63936005142546,30.765165351100222],[112.63940657785145,30.765271949540988],[112.63980808377619,30.766398252377599],[112.63995831462466,30.766839438189663],[112.64003932825256,30.76702779489699],[112.64017721410733,30.767385436388963],[112.64036281259393,30.767613864188661],[112.6404527834693,30.767660456265219],[112.64047584748255,30.76767819809055],[112.64071394299424,30.767795699911801],[112.64076256214275,30.767820877331815],[112.64129794024791,30.768084997424864],[112.64143038700297,30.768175061829822],[112.64172506515979,30.768409882909907],[112.64201654892474,30.768707314790902],[112.64215246076765,30.768919085347648],[112.64228303693278,30.769155755433928],[112.64239794780724,30.769417274687669],[112.64255787604532,30.769813764194055],[112.64283156582428,30.770497988191778],[112.64296832213051,30.77090465892303],[112.64327289282994,30.77201348793227],[112.64343350635136,30.772667839149619],[112.6434899630915,30.772819245411995],[112.64352155807364,30.772936807487838],[112.64356204645151,30.773012560981044],[112.64356437749416,30.77301881036999],[112.64357785383504,30.773042136085849],[112.64370596585786,30.773281828793529],[112.64395580921337,30.77347218559305],[112.64417997872317,30.773585725900716],[112.64474815870074,30.773881364533509],[112.64541526859989,30.774405169263332],[112.64693608423306,30.775696981530643],[112.64767726589332,30.776376763776796],[112.64785335584781,30.776540412510201],[112.64886290779714,30.777727078741862],[112.64888197162588,30.777750466511009],[112.64912532547362,30.778057424011081],[112.64947615909762,30.778570181468865],[112.65023202219027,30.779695186583751],[112.65027464375999,30.779768614430168],[112.65086814414974,30.780842565931835],[112.65161629195848,30.782205858114025],[112.65170685368855,30.78238574140903],[112.65173818337064,30.782455893025201],[112.65201741207409,30.783191006060235],[112.65182705527457,30.783012546392058],[112.65167239076834,30.782816240577233],[112.65147584663316,30.782786973040515],[112.65111797581415,30.782798394430529],[112.65086099453947,30.782838369295462],[112.65050312372034,30.782876441194958],[112.65031086305601,30.782851694550232],[112.65001961671214,30.782794587600279],[112.64983497060757,30.782735576785626],[112.64963509628285,30.7827032164804],[112.64935622281166,30.782667999928435],[112.64918133255264,30.782671569337595],[112.64908020558721,30.782703692221787],[112.64904689289995,30.78277656338787],[112.64895468900784,30.782969894245412],[112.64871674278368,30.783413069357835],[112.64845202823869,30.783933576273682],[112.64804751947759,30.784647414047072],[112.64779470206406,30.785138178584248],[112.64732475863093,30.785831196152969],[112.64693214700117,30.78645580499159],[112.64678343061098,30.786759185887888],[112.6467298930703,30.786821646501949],[112.6465425103288,30.786896005146673],[112.64604877263298,30.787458152471913],[112.64572754469066,30.787812097750304],[112.64532898494485,30.788219580569375],[112.6449215030251,30.788600294168418],[112.64451747000544,30.788937772860095],[112.6441462739316,30.789234015837337],[112.64359661908884,30.789587365764476],[112.64318259280265,30.78986933200423],[112.64258296802973,30.790272650962265],[112.64202974377781,30.790700953086684]]]},"properties":{"OBJECTID":1,"Shape_Length":0.89887041092278885,"Shape_Area":0.004450268923589653}}]}